[{"OBJECT_NAME":"STARLINK-1545","OBJECT_ID":"2020-057AR","EPOCH":"2026-03-10T00:00:02.999808","MEAN_MOTION":15.61488113,"ECCENTRICITY":0.0001061,"INCLINATION":53.0451,"RA_OF_ASC_NODE":256.9327,"ARG_OF_PERICENTER":14.32,"MEAN_ANOMALY":21.5114,"EPHEMERIS_TYPE":0,"CLASSIFICATION_TYPE":"U","NORAD_CAT_ID":46156,"ELEMENT_SET_NO":999,"REV_AT_EPOCH":589,"BSTAR":0.0018479178,"MEAN_MOTION_DOT":0.00163853,"MEAN_MOTION_DDOT":0},{"OBJECT_NAME":"ISS OBJECT XY","OBJECT_ID":"1998-067XY","EPOCH":"2026-03-09T06:17:22.701984","MEAN_MOTION":15.6359668,"ECCENTRICITY":0.0003192,"INCLINATION":51.6273,"RA_OF_ASC_NODE":69.2991,"ARG_OF_PERICENTER":85.1778,"MEAN_ANOMALY":274.9581,"EPHEMERIS_TYPE":0,"CLASSIFICATION_TYPE":"U","NORAD_CAT_ID":66912,"ELEMENT_SET_NO":999,"REV_AT_EPOCH":1508,"BSTAR":0.00098678059,"MEAN_MOTION_DOT":0.00094078,"MEAN_MOTION_DDOT":0}]
